{
  "type": "FeatureCollection",
  "features": [
    {
      "type": "Feature",
      "properties": {
        "norad_id": 35234,
        "name": "FENGYUN 1C DEB",
        "group": "fengyun-1c-debris",
        "lat": 17.784140133878346,
        "lon": -151.86173915633896,
        "alt_km": 645.5740457522779,
        "timestamp": "2025-12-23T18:59:32.254222+00:00",
        "meta_object_name": "FENGYUN 1C DEB",
        "meta_object_id": "1999-025DQS",
        "meta_epoch": "2025-12-22T19:18:28.251360",
        "meta_mean_motion": 14.65612887,
        "meta_eccentricity": 0.01001329,
        "meta_inclination": 98.0674,
        "meta_ra_of_asc_node": 24.5617,
        "meta_arg_of_pericenter": 230.4813,
        "meta_mean_anomaly": 128.7507,
        "meta_ephemeris_type": 0,
        "meta_classification_type": "U",
        "meta_norad_cat_id": 35234,
        "meta_element_set_no": 999,
        "meta_rev_at_epoch": 94503,
        "meta_bstar": 0.00055440323,
        "meta_mean_motion_dot": 3.19e-05,
        "meta_mean_motion_ddot": 0,
        "tle_line1": "1 35234U 99025DQS 25356.80449365  .00003190  00000+0  55440-3 0  9995",
        "tle_line2": "2 35234  98.0674  24.5617 0100132 230.4813 128.7507 14.65612887945035"
      },
      "geometry": {
        "type": "Point",
        "coordinates": [
          -151.86173915633896,
          17.784140133878346
        ]
      }
    },
    {
      "type": "Feature",
      "properties": {
        "norad_id": 35239,
        "name": "FENGYUN 1C DEB",
        "group": "fengyun-1c-debris",
        "lat": -38.02866875492251,
        "lon": 165.39162242185878,
        "alt_km": 848.9832033734474,
        "timestamp": "2025-12-23T18:59:32.254231+00:00",
        "meta_object_name": "FENGYUN 1C DEB",
        "meta_object_id": "1999-025DQX",
        "meta_epoch": "2025-12-22T22:07:40.821600",
        "meta_mean_motion": 13.69239796,
        "meta_eccentricity": 0.0229589,
        "meta_inclination": 99.2657,
        "meta_ra_of_asc_node": 157.2202,
        "meta_arg_of_pericenter": 343.8182,
        "meta_mean_anomaly": 15.5718,
        "meta_ephemeris_type": 0,
        "meta_classification_type": "U",
        "meta_norad_cat_id": 35239,
        "meta_element_set_no": 999,
        "meta_rev_at_epoch": 58270,
        "meta_bstar": 0.0011233,
        "meta_mean_motion_dot": 1.129e-05,
        "meta_mean_motion_ddot": 0,
        "tle_line1": "1 35239U 99025DQX 25356.92200025  .00001129  00000+0  11233-2 0  9992",
        "tle_line2": "2 35239  99.2657 157.2202 0229589 343.8182  15.5718 13.69239796582709"
      },
      "geometry": {
        "type": "Point",
        "coordinates": [
          165.39162242185878,
          -38.02866875492251
        ]
      }
    },
    {
      "type": "Feature",
      "properties": {
        "norad_id": 35240,
        "name": "FENGYUN 1C DEB",
        "group": "fengyun-1c-debris",
        "lat": 35.831223349384885,
        "lon": 147.73656466821896,
        "alt_km": 780.6480520691557,
        "timestamp": "2025-12-23T18:59:32.254240+00:00",
        "meta_object_name": "FENGYUN 1C DEB",
        "meta_object_id": "1999-025DQY",
        "meta_epoch": "2025-12-22T08:34:55.189344",
        "meta_mean_motion": 14.23369978,
        "meta_eccentricity": 0.00466046,
        "meta_inclination": 99.3513,
        "meta_ra_of_asc_node": 319.3809,
        "meta_arg_of_pericenter": 124.0693,
        "meta_mean_anomaly": 236.492,
        "meta_ephemeris_type": 0,
        "meta_classification_type": "U",
        "meta_norad_cat_id": 35240,
        "meta_element_set_no": 999,
        "meta_rev_at_epoch": 93301,
        "meta_bstar": 0.0017957751,
        "meta_mean_motion_dot": 4.072e-05,
        "meta_mean_motion_ddot": 0,
        "tle_line1": "1 35240U 99025DQY 25356.35758321  .00004072  00000+0  17958-2 0  9998",
        "tle_line2": "2 35240  99.3513 319.3809 0046604 124.0693 236.4920 14.23369978933018"
      },
      "geometry": {
        "type": "Point",
        "coordinates": [
          147.73656466821896,
          35.831223349384885
        ]
      }
    },
    {
      "type": "Feature",
      "properties": {
        "norad_id": 35241,
        "name": "FENGYUN 1C DEB",
        "group": "fengyun-1c-debris",
        "lat": -41.77821538736604,
        "lon": -65.93560850390678,
        "alt_km": 968.1214464701061,
        "timestamp": "2025-12-23T18:59:32.254249+00:00",
        "meta_object_name": "FENGYUN 1C DEB",
        "meta_object_id": "1999-025DQZ",
        "meta_epoch": "2025-12-11T05:44:22.817472",
        "meta_mean_motion": 14.01929609,
        "meta_eccentricity": 0.0135502,
        "meta_inclination": 98.631,
        "meta_ra_of_asc_node": 274.3792,
        "meta_arg_of_pericenter": 212.8639,
        "meta_mean_anomaly": 146.4048,
        "meta_ephemeris_type": 0,
        "meta_classification_type": "U",
        "meta_norad_cat_id": 35241,
        "meta_element_set_no": 999,
        "meta_rev_at_epoch": 87585,
        "meta_bstar": 0.002553102,
        "meta_mean_motion_dot": 4.174e-05,
        "meta_mean_motion_ddot": 0,
        "tle_line1": "1 35241U 99025DQZ 25345.23915298  .00004174  00000+0  25531-2 0  9991",
        "tle_line2": "2 35241  98.6310 274.3792 0135502 212.8639 146.4048 14.01929609875856"
      },
      "geometry": {
        "type": "Point",
        "coordinates": [
          -65.93560850390678,
          -41.77821538736604
        ]
      }
    },
    {
      "type": "Feature",
      "properties": {
        "norad_id": 35242,
        "name": "FENGYUN 1C DEB",
        "group": "fengyun-1c-debris",
        "lat": -58.61450743273819,
        "lon": -146.35015345217454,
        "alt_km": 1019.0597539483624,
        "timestamp": "2025-12-23T18:59:32.254258+00:00",
        "meta_object_name": "FENGYUN 1C DEB",
        "meta_object_id": "1999-025DRA",
        "meta_epoch": "2025-12-21T22:18:26.785152",
        "meta_mean_motion": 13.52365631,
        "meta_eccentricity": 0.03018081,
        "meta_inclination": 99.9691,
        "meta_ra_of_asc_node": 48.533,
        "meta_arg_of_pericenter": 166.1943,
        "meta_mean_anomaly": 10.5096,
        "meta_ephemeris_type": 0,
        "meta_classification_type": "U",
        "meta_norad_cat_id": 35242,
        "meta_element_set_no": 999,
        "meta_rev_at_epoch": 58251,
        "meta_bstar": 0.0013381155,
        "meta_mean_motion_dot": 1.133e-05,
        "meta_mean_motion_ddot": 0,
        "tle_line1": "1 35242U 99025DRA 25355.92947668  .00001133  00000+0  13381-2 0  9997",
        "tle_line2": "2 35242  99.9691  48.5330 0301808 166.1943  10.5096 13.52365631582511"
      },
      "geometry": {
        "type": "Point",
        "coordinates": [
          -146.35015345217454,
          -58.61450743273819
        ]
      }
    },
    {
      "type": "Feature",
      "properties": {
        "norad_id": 35243,
        "name": "FENGYUN 1C DEB",
        "group": "fengyun-1c-debris",
        "lat": -62.331224448961166,
        "lon": -119.38343109214867,
        "alt_km": 570.7004920043437,
        "timestamp": "2025-12-23T18:59:32.254267+00:00",
        "meta_object_name": "FENGYUN 1C DEB",
        "meta_object_id": "1999-025DRB",
        "meta_epoch": "2025-12-22T04:45:48.502656",
        "meta_mean_motion": 14.87300189,
        "meta_eccentricity": 0.0065687,
        "meta_inclination": 98.8802,
        "meta_ra_of_asc_node": 76.1854,
        "meta_arg_of_pericenter": 226.8779,
        "meta_mean_anomaly": 132.6929,
        "meta_ephemeris_type": 0,
        "meta_classification_type": "U",
        "meta_norad_cat_id": 35243,
        "meta_element_set_no": 999,
        "meta_rev_at_epoch": 91141,
        "meta_bstar": 0.0024245814,
        "meta_mean_motion_dot": 0.00022751,
        "meta_mean_motion_ddot": 0,
        "tle_line1": "1 35243U 99025DRB 25356.19847804  .00022751  00000+0  24246-2 0  9990",
        "tle_line2": "2 35243  98.8802  76.1854 0065687 226.8779 132.6929 14.87300189911417"
      },
      "geometry": {
        "type": "Point",
        "coordinates": [
          -119.38343109214867,
          -62.331224448961166
        ]
      }
    },
    {
      "type": "Feature",
      "properties": {
        "norad_id": 35244,
        "name": "FENGYUN 1C DEB",
        "group": "fengyun-1c-debris",
        "lat": -80.79080991390818,
        "lon": 144.03772533954913,
        "alt_km": 918.4662652450597,
        "timestamp": "2025-12-23T18:59:32.254276+00:00",
        "meta_object_name": "FENGYUN 1C DEB",
        "meta_object_id": "1999-025DRC",
        "meta_epoch": "2025-12-21T09:23:41.022528",
        "meta_mean_motion": 14.06644711,
        "meta_eccentricity": 0.0072073,
        "meta_inclination": 98.8404,
        "meta_ra_of_asc_node": 35.4126,
        "meta_arg_of_pericenter": 133.4643,
        "meta_mean_anomaly": 227.255,
        "meta_ephemeris_type": 0,
        "meta_classification_type": "U",
        "meta_norad_cat_id": 35244,
        "meta_element_set_no": 999,
        "meta_rev_at_epoch": 65943,
        "meta_bstar": 0.00051773213,
        "meta_mean_motion_dot": 8.37e-06,
        "meta_mean_motion_ddot": 0,
        "tle_line1": "1 35244U 99025DRC 25355.39144702  .00000837  00000+0  51773-3 0  9996",
        "tle_line2": "2 35244  98.8404  35.4126 0072073 133.4643 227.2550 14.06644711659431"
      },
      "geometry": {
        "type": "Point",
        "coordinates": [
          144.03772533954913,
          -80.79080991390818
        ]
      }
    }
  ]
}